{
  "sq": {"base": "sq", "region": "AL", "name": "Albanian", "nativeName": "Shqip"},
  "am": {"base": "am", "region": "ET", "name": "Amharic", "nativeName": "አማርኛ"},
  "ar": {"base": "ar", "region": "SA", "name": "Arabic", "nativeName": "العربية"},
  "hy": {"base": "hy", "region": "AM", "name": "Armenian", "nativeName": "Հdelays"},
  "az": {"base": "az", "region": "AZ", "name": "Azerbaijani", "nativeName": "Azərbaycan"},
  "eu": {"base": "eu", "region": "ES", "name": "Basque", "nativeName": "Euskera"},
  "bn": {"base": "bn", "region": "BD", "name": "Bengali", "nativeName": "বাংলা"},
  "bs": {"base": "bs", "region": "BA", "name": "Bosnian", "nativeName": "Bosanski"},
  "bg": {"base": "bg", "region": "BG", "name": "Bulgarian", "nativeName": "Български"},
  "ca": {"base": "ca", "region": "ES", "name": "Catalan", "nativeName": "Català"},
  "zh-CN": {"base": "zh", "region": "CN", "name": "Chinese (Simplified)", "nativeName": "简体中文"},
  "zh-TW": {"base": "zh", "region": "TW", "name": "Chinese (Traditional)", "nativeName": "繁體中文"},
  "hr": {"base": "hr", "region": "HR", "name": "Croatian", "nativeName": "Hrvatski"},
  "cs": {"base": "cs", "region": "CZ", "name": "Czech", "nativeName": "Čeština"},
  "da": {"base": "da", "region": "DK", "name": "Danish", "nativeName": "Dansk"},
  "nl": {"base": "nl", "region": "NL", "name": "Dutch", "nativeName": "Nederlands"},
  "en-US": {"base": "en", "region": "US", "name": "English (United States)", "nativeName": "English (US)"},
  "en-GB": {"base": "en", "region": "GB", "name": "English (United Kingdom)", "nativeName": "English (UK)"},
  "en-CA": {"base": "en", "region": "CA", "name": "English (Canada)", "nativeName": "English (CA)"},
  "en-AU": {"base": "en", "region": "AU", "name": "English (Australia)", "nativeName": "English (AU)"},
  "et": {"base": "et", "region": "EE", "name": "Estonian", "nativeName": "Eesti"},
  "tl": {"base": "tl", "region": "PH", "name": "Filipino", "nativeName": "Filipino"},
  "fi": {"base": "fi", "region": "FI", "name": "Finnish", "nativeName": "Suomi"},
  "fr-FR": {"base": "fr", "region": "FR", "name": "French (France)", "nativeName": "Français (France)"},
  "fr-CA": {"base": "fr", "region": "CA", "name": "French (Canada)", "nativeName": "Français (Canada)"},
  "gl": {"base": "gl", "region": "ES", "name": "Galician", "nativeName": "Galego"},
  "ka": {"base": "ka", "region": "GE", "name": "Georgian", "nativeName": "ქართული"},
  "de-DE": {"base": "de", "region": "DE", "name": "German (Germany)", "nativeName": "Deutsch (Deutschland)"},
  "de-AT": {"base": "de", "region": "AT", "name": "German (Austria)", "nativeName": "Deutsch (Österreich)"},
  "de-CH": {"base": "de", "region": "CH", "name": "German (Switzerland)", "nativeName": "Deutsch (Schweiz)"},
  "gu": {"base": "gu", "region": "IN", "name": "Gujarati", "nativeName": "ગુજરાતી"},
  "he": {"base": "he", "region": "IL", "name": "Hebrew", "nativeName": "עברית"},
  "hi": {"base": "hi", "region": "IN", "name": "Hindi", "nativeName": "हिन्दी"},
  "hu": {"base": "hu", "region": "HU", "name": "Hungarian", "nativeName": "Magyar"},
  "is": {"base": "is", "region": "IS", "name": "Icelandic", "nativeName": "Íslenska"},
  "id": {"base": "id", "region": "ID", "name": "Indonesian", "nativeName": "Bahasa Indonesia"},
  "ga": {"base": "ga", "region": "IE", "name": "Irish", "nativeName": "Gaeilge"},
  "it": {"base": "it", "region": "IT", "name": "Italian", "nativeName": "Italiano"},
  "ja": {"base": "ja", "region": "JP", "name": "Japanese", "nativeName": "日本語"},
  "kn": {"base": "kn", "region": "IN", "name": "Kannada", "nativeName": "ಕನ್ನಡ"},
  "kk": {"base": "kk", "region": "KZ", "name": "Kazakh", "nativeName": "Қазақша"},
  "km": {"base": "km", "region": "KH", "name": "Khmer", "nativeName": "ខ្មែរ"},
  "ko": {"base": "ko", "region": "KR", "name": "Korean", "nativeName": "한국어"},
  "ky": {"base": "ky", "region": "KG", "name": "Kyrgyz", "nativeName": "Кыргызча"},
  "lo": {"base": "lo", "region": "LA", "name": "Lao", "nativeName": "ລາວ"},
  "lv": {"base": "lv", "region": "LV", "name": "Latvian", "nativeName": "Latviešu"},
  "lt": {"base": "lt", "region": "LT", "name": "Lithuanian", "nativeName": "Lietuvių"},
  "mk": {"base": "mk", "region": "MK", "name": "Macedonian", "nativeName": "Македонски"},
  "ms": {"base": "ms", "region": "MY", "name": "Malay", "nativeName": "Bahasa Melayu"},
  "ml": {"base": "ml", "region": "IN", "name": "Malayalam", "nativeName": "മലയാളം"},
  "mt": {"base": "mt", "region": "MT", "name": "Maltese", "nativeName": "Malti"},
  "mr": {"base": "mr", "region": "IN", "name": "Marathi", "nativeName": "मराठी"},
  "mn": {"base": "mn", "region": "MN", "name": "Mongolian", "nativeName": "Монгол"},
  "me": {"base": "me", "region": "ME", "name": "Montenegrin", "nativeName": "Crnogorski"},
  "my": {"base": "my", "region": "MM", "name": "Myanmar", "nativeName": "မြန်မာ"},
  "ne": {"base": "ne", "region": "NP", "name": "Nepali", "nativeName": "नेपाली"},
  "no": {"base": "no", "region": "NO", "name": "Norwegian", "nativeName": "Norsk"},
  "fa": {"base": "fa", "region": "IR", "name": "Persian", "nativeName": "فارسی"},
  "pl": {"base": "pl", "region": "PL", "name": "Polish", "nativeName": "Polski"},
  "pt-PT": {"base": "pt", "region": "PT", "name": "Portuguese (Portugal)", "nativeName": "Português (Portugal)"},
  "pt-BR": {"base": "pt", "region": "BR", "name": "Portuguese (Brazil)", "nativeName": "Português (Brasil)"},
  "pa": {"base": "pa", "region": "IN", "name": "Punjabi", "nativeName": "ਪੰਜਾਬੀ"},
  "ro": {"base": "ro", "region": "RO", "name": "Romanian", "nativeName": "Română"},
  "ru": {"base": "ru", "region": "RU", "name": "Russian", "nativeName": "Русский"},
  "gd": {"base": "gd", "region": "GB", "name": "Scottish Gaelic", "nativeName": "Gàidhlig"},
  "sr": {"base": "sr", "region": "RS", "name": "Serbian", "nativeName": "Српски"},
  "si": {"base": "si", "region": "LK", "name": "Sinhala", "nativeName": "සිංහල"},
  "sk": {"base": "sk", "region": "SK", "name": "Slovak", "nativeName": "Slovenčina"},
  "sl": {"base": "sl", "region": "SI", "name": "Slovenian", "nativeName": "Slovenščina"},
  "es-ES": {"base": "es", "region": "ES", "name": "Spanish (Spain)", "nativeName": "Español (España)"},
  "es-MX": {"base": "es", "region": "MX", "name": "Spanish (Mexico)", "nativeName": "Español (México)"},
  "es-AR": {"base": "es", "region": "AR", "name": "Spanish (Argentina)", "nativeName": "Español (Argentina)"},
  "es-CO": {"base": "es", "region": "CO", "name": "Spanish (Colombia)", "nativeName": "Español (Colombia)"},
  "sw": {"base": "sw", "region": "KE", "name": "Swahili", "nativeName": "Kiswahili"},
  "sv": {"base": "sv", "region": "SE", "name": "Swedish", "nativeName": "Svenska"},
  "ta": {"base": "ta", "region": "IN", "name": "Tamil", "nativeName": "தமிழ்"},
  "te": {"base": "te", "region": "IN", "name": "Telugu", "nativeName": "తెలుగు"},
  "th": {"base": "th", "region": "TH", "name": "Thai", "nativeName": "ไทย"},
  "tr": {"base": "tr", "region": "TR", "name": "Turkish", "nativeName": "Türkçe"},
  "tk": {"base": "tk", "region": "TM", "name": "Turkmen", "nativeName": "Türkmen"},
  "uk": {"base": "uk", "region": "UA", "name": "Ukrainian", "nativeName": "Українська"},
  "ur": {"base": "ur", "region": "PK", "name": "Urdu", "nativeName": "اردو"},
  "uz": {"base": "uz", "region": "UZ", "name": "Uzbek", "nativeName": "O'zbek"},
  "vi": {"base": "vi", "region": "VN", "name": "Vietnamese", "nativeName": "Tiếng Việt"},
  "cy": {"base": "cy", "region": "GB", "name": "Welsh", "nativeName": "Cymraeg"}
}
